start=new Date('2023-04-29T00:00:00.000Z').valueOf();
sats=[{"RCS_SIZE":"LARGE","MEAN_ELEMENT_THEORY":"SGP4","NORAD_CAT_ID":"53654","EPOCH":"2023-04-28T09:21:14.791392","OBJECT_TYPE":"PAYLOAD","PERIOD":"95.919","REV_AT_EPOCH":"3625","ELEMENT_SET_NO":"999","EPHEMERIS_TYPE":"0","OBJECT_NAME":"STARLINK-4420","LAUNCH_DATE":"2022-08-31","CENTER_NAME":"EARTH","RA_OF_ASC_NODE":"0.1585","MEAN_MOTION_DOT":"-0.00000646","FILE":"3895770","MEAN_MOTION_DDOT":"0.0000000000000","ECCENTRICITY":"0.00047970","COUNTRY_CODE":"US","BSTAR":"-0.00004563400000","TIME_SYSTEM":"UTC","APOAPSIS":"566.316","DECAY_DATE":null,"MEAN_ANOMALY":"291.0382","GP_ID":"230887304","MEAN_MOTION":"15.01268410","SEMIMAJOR_AXIS":"6941.121","INCLINATION":"97.6571","PERIAPSIS":"559.656","TLE_LINE2":"2 53654  97.6571   0.1585 0004797  69.1356 291.0382 15.01268410 36255","REF_FRAME":"TEME","CLASSIFICATION_TYPE":"U","OBJECT_ID":"2022-105G","TLE_LINE1":"1 53654U 22105G   23118.38975453 -.00000646  00000-0 -45634-4 0  9996","ARG_OF_PERICENTER":"69.1356","SITE":"AFWTR"},{"APOAPSIS":"566.182","DECAY_DATE":null,"TIME_SYSTEM":"UTC","BSTAR":"-0.00000119080000","GP_ID":"230893374","MEAN_ANOMALY":"299.7437","CLASSIFICATION_TYPE":"U","TLE_LINE2":"2 53655  97.6564   0.1653 0004608  60.4245 299.7437 15.01269062 36537","REF_FRAME":"TEME","PERIAPSIS":"559.785","INCLINATION":"97.6564","SEMIMAJOR_AXIS":"6941.119","MEAN_MOTION":"15.01269062","SITE":"AFWTR","TLE_LINE1":"1 53655U 22105H   23118.39345306 -.00000075  00000-0 -11908-5 0  9990","ARG_OF_PERICENTER":"60.4245","OBJECT_ID":"2022-105H","OBJECT_TYPE":"PAYLOAD","EPOCH":"2023-04-28T09:26:34.344384","NORAD_CAT_ID":"53655","MEAN_ELEMENT_THEORY":"SGP4","RCS_SIZE":"MEDIUM","EPHEMERIS_TYPE":"0","ELEMENT_SET_NO":"999","REV_AT_EPOCH":"3653","PERIOD":"95.919","MEAN_MOTION_DOT":"-0.00000075","FILE":"3895932","RA_OF_ASC_NODE":"0.1653","CENTER_NAME":"EARTH","LAUNCH_DATE":"2022-08-31","OBJECT_NAME":"STARLINK-4470","COUNTRY_CODE":"US","ECCENTRICITY":"0.00046080","MEAN_MOTION_DDOT":"0.0000000000000"},{"MEAN_MOTION":"15.01938319","SEMIMAJOR_AXIS":"6939.057","TLE_LINE2":"2 53656  97.6550   0.6257 0002899  78.2678 281.8871 15.01938319 36605","PERIAPSIS":"558.910","REF_FRAME":"TEME","INCLINATION":"97.6550","CLASSIFICATION_TYPE":"U","OBJECT_ID":"2022-105J","ARG_OF_PERICENTER":"78.2678","TLE_LINE1":"1 53656U 22105J   23118.85236142  .00142123  00000-0  10657-1 0  9994","SITE":"AFWTR","BSTAR":"0.01065700000000","TIME_SYSTEM":"UTC","APOAPSIS":"562.933","DECAY_DATE":null,"MEAN_ANOMALY":"281.8871","GP_ID":"230893387","LAUNCH_DATE":"2022-08-31","OBJECT_NAME":"STARLINK-4466","RA_OF_ASC_NODE":"0.6257","CENTER_NAME":"EARTH","MEAN_MOTION_DOT":"0.00142123","FILE":"3895933","MEAN_MOTION_DDOT":"0.0000000000000","ECCENTRICITY":"0.00028990","COUNTRY_CODE":"US","RCS_SIZE":"LARGE","MEAN_ELEMENT_THEORY":"SGP4","NORAD_CAT_ID":"53656","OBJECT_TYPE":"PAYLOAD","EPOCH":"2023-04-28T20:27:24.026688","PERIOD":"95.876","ELEMENT_SET_NO":"999","REV_AT_EPOCH":"3660","EPHEMERIS_TYPE":"0"},{"INCLINATION":"97.6564","TLE_LINE2":"2 53657  97.6564   0.1648 0003813  61.3269 298.8338 15.01270585 36257","REF_FRAME":"TEME","PERIAPSIS":"560.333","CLASSIFICATION_TYPE":"U","MEAN_MOTION":"15.01270585","SEMIMAJOR_AXIS":"6941.114","SITE":"AFWTR","OBJECT_ID":"2022-105K","ARG_OF_PERICENTER":"61.3269","TLE_LINE1":"1 53657U 22105K   23118.39160341  .00001510  00000-0  12213-3 0  9997","TIME_SYSTEM":"UTC","DECAY_DATE":null,"APOAPSIS":"565.626","BSTAR":"0.00012213000000","GP_ID":"230886554","MEAN_ANOMALY":"298.8338","CENTER_NAME":"EARTH","RA_OF_ASC_NODE":"0.1648","MEAN_MOTION_DOT":"0.00001510","FILE":"3895770","OBJECT_NAME":"STARLINK-4469","LAUNCH_DATE":"2022-08-31","COUNTRY_CODE":"US","MEAN_MOTION_DDOT":"0.0000000000000","ECCENTRICITY":"0.00038130","NORAD_CAT_ID":"53657","EPOCH":"2023-04-28T09:23:54.534624","OBJECT_TYPE":"PAYLOAD","RCS_SIZE":"LARGE","MEAN_ELEMENT_THEORY":"SGP4","REV_AT_EPOCH":"3625","ELEMENT_SET_NO":"999","EPHEMERIS_TYPE":"0","PERIOD":"95.919"},{"REV_AT_EPOCH":"3661","ELEMENT_SET_NO":"999","EPHEMERIS_TYPE":"0","PERIOD":"95.920","NORAD_CAT_ID":"53658","EPOCH":"2023-04-28T22:00:00.999936","OBJECT_TYPE":"PAYLOAD","RCS_SIZE":"LARGE","MEAN_ELEMENT_THEORY":"SGP4","COUNTRY_CODE":"US","MEAN_MOTION_DDOT":"0.0000000000000","ECCENTRICITY":"0.00030020","CENTER_NAME":"EARTH","RA_OF_ASC_NODE":"0.6826","MEAN_MOTION_DOT":"0.00004765","FILE":"3895933","OBJECT_NAME":"STARLINK-4452","LAUNCH_DATE":"2022-08-31","GP_ID":"230893391","MEAN_ANOMALY":"246.3637","TIME_SYSTEM":"UTC","APOAPSIS":"565.147","DECAY_DATE":null,"BSTAR":"0.00037550000000","SITE":"AFWTR","OBJECT_ID":"2022-105L","TLE_LINE1":"1 53658U 22105L   23118.91667824  .00004765  00000-0  37550-3 0  9990","ARG_OF_PERICENTER":"99.8663","INCLINATION":"97.6564","REF_FRAME":"TEME","TLE_LINE2":"2 53658  97.6564   0.6826 0003002  99.8663 246.3637 15.01243408 36619","PERIAPSIS":"560.979","CLASSIFICATION_TYPE":"U","MEAN_MOTION":"15.01243408","SEMIMAJOR_AXIS":"6941.198"},{"TLE_LINE2":"2 53659  97.6557   0.1610 0003410  81.7547 278.4064 15.01261306 36259","PERIAPSIS":"560.641","REF_FRAME":"TEME","INCLINATION":"97.6557","CLASSIFICATION_TYPE":"U","MEAN_MOTION":"15.01261306","SEMIMAJOR_AXIS":"6941.143","SITE":"AFWTR","OBJECT_ID":"2022-105M","TLE_LINE1":"1 53659U 22105M   23118.38790192  .00000223  00000-0  21948-4 0  9997","ARG_OF_PERICENTER":"81.7547","TIME_SYSTEM":"UTC","APOAPSIS":"565.375","DECAY_DATE":null,"BSTAR":"0.00002194800000","GP_ID":"230887555","MEAN_ANOMALY":"278.4064","RA_OF_ASC_NODE":"0.1610","CENTER_NAME":"EARTH","FILE":"3895770","MEAN_MOTION_DOT":"0.00000223","LAUNCH_DATE":"2022-08-31","OBJECT_NAME":"STARLINK-4463","COUNTRY_CODE":"US","MEAN_MOTION_DDOT":"0.0000000000000","ECCENTRICITY":"0.00034100","NORAD_CAT_ID":"53659","OBJECT_TYPE":"PAYLOAD","EPOCH":"2023-04-28T09:18:34.725888","RCS_SIZE":"LARGE","MEAN_ELEMENT_THEORY":"SGP4","ELEMENT_SET_NO":"999","REV_AT_EPOCH":"3625","EPHEMERIS_TYPE":"0","PERIOD":"95.919"},{"MEAN_MOTION":"15.01268012","SEMIMAJOR_AXIS":"6941.122","INCLINATION":"97.6555","TLE_LINE2":"2 53660  97.6555   0.1534 0001478  79.3172 280.8219 15.01268012 36253","PERIAPSIS":"561.961","REF_FRAME":"TEME","CLASSIFICATION_TYPE":"U","OBJECT_ID":"2022-105N","TLE_LINE1":"1 53660U 22105N   23118.38048517 -.00001556  00000-0 -11658-3 0  9994","ARG_OF_PERICENTER":"79.3172","SITE":"AFWTR","BSTAR":"-0.00011658000000","TIME_SYSTEM":"UTC","APOAPSIS":"564.013","DECAY_DATE":null,"MEAN_ANOMALY":"280.8219","GP_ID":"230885805","OBJECT_NAME":"STARLINK-4473","LAUNCH_DATE":"2022-08-31","CENTER_NAME":"EARTH","RA_OF_ASC_NODE":"0.1534","FILE":"3895770","MEAN_MOTION_DOT":"-0.00001556","MEAN_MOTION_DDOT":"0.0000000000000","ECCENTRICITY":"0.00014780","COUNTRY_CODE":"US","RCS_SIZE":"LARGE","MEAN_ELEMENT_THEORY":"SGP4","NORAD_CAT_ID":"53660","EPOCH":"2023-04-28T09:07:53.918688","OBJECT_TYPE":"PAYLOAD","PERIOD":"95.919","REV_AT_EPOCH":"3625","ELEMENT_SET_NO":"999","EPHEMERIS_TYPE":"0"},{"MEAN_ANOMALY":"268.6424","GP_ID":"230886055","BSTAR":"-0.00005378700000","DECAY_DATE":null,"APOAPSIS":"565.125","TIME_SYSTEM":"UTC","TLE_LINE1":"1 53661U 22105P   23118.38419433 -.00000750  00000-0 -53787-4 0  9999","ARG_OF_PERICENTER":"91.5152","OBJECT_ID":"2022-105P","SITE":"AFWTR","SEMIMAJOR_AXIS":"6941.128","MEAN_MOTION":"15.01266064","CLASSIFICATION_TYPE":"U","INCLINATION":"97.6556","TLE_LINE2":"2 53661  97.6556   0.1581 0003072  91.5152 268.6424 15.01266064 36250","PERIAPSIS":"560.861","REF_FRAME":"TEME","PERIOD":"95.919","EPHEMERIS_TYPE":"0","REV_AT_EPOCH":"3625","ELEMENT_SET_NO":"999","MEAN_ELEMENT_THEORY":"SGP4","RCS_SIZE":"LARGE","EPOCH":"2023-04-28T09:13:14.390112","OBJECT_TYPE":"PAYLOAD","NORAD_CAT_ID":"53661","ECCENTRICITY":"0.00030720","MEAN_MOTION_DDOT":"0.0000000000000","COUNTRY_CODE":"US","OBJECT_NAME":"STARLINK-4472","LAUNCH_DATE":"2022-08-31","MEAN_MOTION_DOT":"-0.00000750","FILE":"3895770","CENTER_NAME":"EARTH","RA_OF_ASC_NODE":"0.1581"},{"REF_FRAME":"TEME","TLE_LINE2":"2 53662  97.6591   0.0163 0002357  61.7629 298.3833 15.01266008 36238","PERIAPSIS":"561.357","INCLINATION":"97.6591","CLASSIFICATION_TYPE":"U","MEAN_MOTION":"15.01266008","SEMIMAJOR_AXIS":"6941.128","SITE":"AFWTR","OBJECT_ID":"2022-105Q","ARG_OF_PERICENTER":"61.7629","TLE_LINE1":"1 53662U 22105Q   23118.24349593  .00003745  00000-0  29596-3 0  9999","TIME_SYSTEM":"UTC","DECAY_DATE":null,"APOAPSIS":"564.629","BSTAR":"0.00029596000000","GP_ID":"230887305","MEAN_ANOMALY":"298.3833","RA_OF_ASC_NODE":"0.0163","CENTER_NAME":"EARTH","MEAN_MOTION_DOT":"0.00003745","FILE":"3895770","LAUNCH_DATE":"2022-08-31","OBJECT_NAME":"STARLINK-4357","COUNTRY_CODE":"US","MEAN_MOTION_DDOT":"0.0000000000000","ECCENTRICITY":"0.00023570","NORAD_CAT_ID":"53662","OBJECT_TYPE":"PAYLOAD","EPOCH":"2023-04-28T05:50:38.048352","RCS_SIZE":"LARGE","MEAN_ELEMENT_THEORY":"SGP4","ELEMENT_SET_NO":"999","REV_AT_EPOCH":"3623","EPHEMERIS_TYPE":"0","PERIOD":"95.919"},{"INCLINATION":"97.6548","REF_FRAME":"TEME","TLE_LINE2":"2 53663  97.6548   0.1551 0003639  91.8317 268.3324 15.01274512 36258","PERIAPSIS":"560.441","CLASSIFICATION_TYPE":"U","MEAN_MOTION":"15.01274512","SEMIMAJOR_AXIS":"6941.102","SITE":"AFWTR","OBJECT_ID":"2022-105R","ARG_OF_PERICENTER":"91.8317","TLE_LINE1":"1 53663U 22105R   23118.38234471  .00001530  00000-0  12367-3 0  9991","TIME_SYSTEM":"UTC","APOAPSIS":"565.493","DECAY_DATE":null,"BSTAR":"0.00012367000000","GP_ID":"230887057","MEAN_ANOMALY":"268.3324","CENTER_NAME":"EARTH","RA_OF_ASC_NODE":"0.1551","MEAN_MOTION_DOT":"0.00001530","FILE":"3895770","OBJECT_NAME":"STARLINK-4457","LAUNCH_DATE":"2022-08-31","COUNTRY_CODE":"US","MEAN_MOTION_DDOT":"0.0000000000000","ECCENTRICITY":"0.00036390","NORAD_CAT_ID":"53663","EPOCH":"2023-04-28T09:10:34.582944","OBJECT_TYPE":"PAYLOAD","RCS_SIZE":"LARGE","MEAN_ELEMENT_THEORY":"SGP4","REV_AT_EPOCH":"3625","ELEMENT_SET_NO":"999","EPHEMERIS_TYPE":"0","PERIOD":"95.919"}];
